STARLINK-6170           
1 57129U 23090AE  26183.80824480 -.00003069  00000+0 -10198-3 0  9993
2 57129  43.0042 333.7028 0002332 267.7337  92.3248 15.27592045167956
STARLINK-6133           
1 57134U 23090AK  26183.81195514  .00001689  00000+0  70948-4 0  9993
2 57134  43.0042 332.8754 0001904 270.2391  89.8243 15.27562954167964
STARLINK-30146          
1 57442U 23105N   26183.79200488 -.00001080  00000+0 -29749-4 0  9996
2 57442  43.0048 329.9530 0001380 280.0182  80.0514 15.27562095163243
STARLINK-30178          
1 57447U 23105T   26183.79585457 -.00001205  00000+0 -34285-4 0  9993
2 57447  43.0036 329.9803 0001566 266.4688  93.5984 15.27571849163183
STARLINK-32510          
1 62040U 24216J   26183.80312593  .00019710  00000+0  72436-3 0  9990
2 62040  43.0025 333.7578 0001193 252.5968 107.4753 15.27556762 91390
STARLINK-32495          
1 62052U 24216W   26183.80683106  .00023353  00000+0  85577-3 0  9992
2 62052  43.0042 332.9227 0001803 277.5640  82.5007 15.27567891 91408
