{
  "schema": "int-temerity-real-tle-snapshot/v1",
  "source": "celestrak",
  "group": "STARLINK",
  "format": "celestrak-gp-json",
  "source_url": "https://celestrak.org/NORAD/elements/gp.php?NAME=STARLINK&FORMAT=JSON",
  "downloaded_at": "2026-07-03T12:25:16.552Z",
  "generated_at": "2026-07-03T12:25:35.465Z",
  "fingerprint": "eb0f9db4",
  "shell_id": "starlink-real-43deg-490km",
  "catalog_count": 10717,
  "shell_count": 3264,
  "selected_count": 1584,
  "mean_altitude_km": 490.23,
  "mean_inclination_deg": 43.0019,
  "mean_mean_motion_rev_per_day": 15.27566421,
  "layout": {
    "planes": 72,
    "satellites_per_plane": 22,
    "selection_strategy": "largest-shell-raan-clusters-even-slot-sampling",
    "raan_cluster_threshold_deg": 2.5,
    "selected_shell_key": "43.0deg-500km"
  },
  "satellites": [
    {
      "satellite_id": "P65-S21",
      "norad_id": 57447,
      "satellite_name": "STARLINK-30178",
      "cospar_id": "2023-105T",
      "shell_id": "starlink-real-43deg-490km",
      "plane_id": 64,
      "slot_id": 20,
      "epoch": "2026-07-02T19:06:01.834848",
      "inclination": 43.0036,
      "raan": 329.98029999999994,
      "eccentricity": 0.0001566,
      "argument_of_perigee": 266.4688,
      "mean_anomaly": 93.59839999999997,
      "mean_motion": 15.27571849,
      "bstar": -0.000034285,
      "status": "active",
      "raw_omm": {
        "OBJECT_NAME": "STARLINK-30178",
        "OBJECT_ID": "2023-105T",
        "EPOCH": "2026-07-02T19:06:01.834848",
        "MEAN_MOTION": 15.27571849,
        "ECCENTRICITY": 0.0001566,
        "INCLINATION": 43.0036,
        "RA_OF_ASC_NODE": 329.9803,
        "ARG_OF_PERICENTER": 266.4688,
        "MEAN_ANOMALY": 93.5984,
        "EPHEMERIS_TYPE": 0,
        "CLASSIFICATION_TYPE": "U",
        "NORAD_CAT_ID": 57447,
        "ELEMENT_SET_NO": 999,
        "REV_AT_EPOCH": 16318,
        "BSTAR": -0.000034285,
        "MEAN_MOTION_DOT": -0.00001205,
        "MEAN_MOTION_DDOT": 0
      },
      "source": "celestrak",
      "source_url": "https://celestrak.org/NORAD/elements/gp.php?NAME=STARLINK&FORMAT=JSON",
      "catalog_fingerprint": "eb0f9db4"
    },
    {
      "satellite_id": "P65-S22",
      "norad_id": 57442,
      "satellite_name": "STARLINK-30146",
      "cospar_id": "2023-105N",
      "shell_id": "starlink-real-43deg-490km",
      "plane_id": 64,
      "slot_id": 21,
      "epoch": "2026-07-02T19:00:29.221632",
      "inclination": 43.0048,
      "raan": 329.953,
      "eccentricity": 0.000138,
      "argument_of_perigee": 280.0182,
      "mean_anomaly": 80.0514,
      "mean_motion": 15.27562095,
      "bstar": -0.000029749,
      "status": "active",
      "raw_omm": {
        "OBJECT_NAME": "STARLINK-30146",
        "OBJECT_ID": "2023-105N",
        "EPOCH": "2026-07-02T19:00:29.221632",
        "MEAN_MOTION": 15.27562095,
        "ECCENTRICITY": 0.000138,
        "INCLINATION": 43.0048,
        "RA_OF_ASC_NODE": 329.953,
        "ARG_OF_PERICENTER": 280.0182,
        "MEAN_ANOMALY": 80.0514,
        "EPHEMERIS_TYPE": 0,
        "CLASSIFICATION_TYPE": "U",
        "NORAD_CAT_ID": 57442,
        "ELEMENT_SET_NO": 999,
        "REV_AT_EPOCH": 16324,
        "BSTAR": -0.000029749,
        "MEAN_MOTION_DOT": -0.0000108,
        "MEAN_MOTION_DDOT": 0
      },
      "source": "celestrak",
      "source_url": "https://celestrak.org/NORAD/elements/gp.php?NAME=STARLINK&FORMAT=JSON",
      "catalog_fingerprint": "eb0f9db4"
    },
    {
      "satellite_id": "P66-S01",
      "norad_id": 57134,
      "satellite_name": "STARLINK-6133",
      "cospar_id": "2023-090AK",
      "shell_id": "starlink-real-43deg-490km",
      "plane_id": 65,
      "slot_id": 0,
      "epoch": "2026-07-02T19:29:12.924096",
      "inclination": 43.0042,
      "raan": 332.8754,
      "eccentricity": 0.0001904,
      "argument_of_perigee": 270.2391,
      "mean_anomaly": 89.8243,
      "mean_motion": 15.27562954,
      "bstar": 0.000070948,
      "status": "active",
      "raw_omm": {
        "OBJECT_NAME": "STARLINK-6133",
        "OBJECT_ID": "2023-090AK",
        "EPOCH": "2026-07-02T19:29:12.924096",
        "MEAN_MOTION": 15.27562954,
        "ECCENTRICITY": 0.0001904,
        "INCLINATION": 43.0042,
        "RA_OF_ASC_NODE": 332.8754,
        "ARG_OF_PERICENTER": 270.2391,
        "MEAN_ANOMALY": 89.8243,
        "EPHEMERIS_TYPE": 0,
        "CLASSIFICATION_TYPE": "U",
        "NORAD_CAT_ID": 57134,
        "ELEMENT_SET_NO": 999,
        "REV_AT_EPOCH": 16796,
        "BSTAR": 0.000070948,
        "MEAN_MOTION_DOT": 0.00001689,
        "MEAN_MOTION_DDOT": 0
      },
      "source": "celestrak",
      "source_url": "https://celestrak.org/NORAD/elements/gp.php?NAME=STARLINK&FORMAT=JSON",
      "catalog_fingerprint": "eb0f9db4"
    },
    {
      "satellite_id": "P66-S02",
      "norad_id": 57129,
      "satellite_name": "STARLINK-6170",
      "cospar_id": "2023-090AE",
      "shell_id": "starlink-real-43deg-490km",
      "plane_id": 65,
      "slot_id": 1,
      "epoch": "2026-07-02T19:23:52.350720",
      "inclination": 43.0042,
      "raan": 333.7028,
      "eccentricity": 0.0002332,
      "argument_of_perigee": 267.7337,
      "mean_anomaly": 92.32479999999998,
      "mean_motion": 15.27592045,
      "bstar": -0.00010198,
      "status": "active",
      "raw_omm": {
        "OBJECT_NAME": "STARLINK-6170",
        "OBJECT_ID": "2023-090AE",
        "EPOCH": "2026-07-02T19:23:52.350720",
        "MEAN_MOTION": 15.27592045,
        "ECCENTRICITY": 0.0002332,
        "INCLINATION": 43.0042,
        "RA_OF_ASC_NODE": 333.7028,
        "ARG_OF_PERICENTER": 267.7337,
        "MEAN_ANOMALY": 92.3248,
        "EPHEMERIS_TYPE": 0,
        "CLASSIFICATION_TYPE": "U",
        "NORAD_CAT_ID": 57129,
        "ELEMENT_SET_NO": 999,
        "REV_AT_EPOCH": 16795,
        "BSTAR": -0.00010198,
        "MEAN_MOTION_DOT": -0.00003069,
        "MEAN_MOTION_DDOT": 0
      },
      "source": "celestrak",
      "source_url": "https://celestrak.org/NORAD/elements/gp.php?NAME=STARLINK&FORMAT=JSON",
      "catalog_fingerprint": "eb0f9db4"
    },
    {
      "satellite_id": "P66-S03",
      "norad_id": 62052,
      "satellite_name": "STARLINK-32495",
      "cospar_id": "2024-216W",
      "shell_id": "starlink-real-43deg-490km",
      "plane_id": 65,
      "slot_id": 2,
      "epoch": "2026-07-02T19:21:50.203584",
      "inclination": 43.0042,
      "raan": 332.9227000000001,
      "eccentricity": 0.0001803,
      "argument_of_perigee": 277.5640000000001,
      "mean_anomaly": 82.5007,
      "mean_motion": 15.27567891,
      "bstar": 0.00085577,
      "status": "active",
      "raw_omm": {
        "OBJECT_NAME": "STARLINK-32495",
        "OBJECT_ID": "2024-216W",
        "EPOCH": "2026-07-02T19:21:50.203584",
        "MEAN_MOTION": 15.27567891,
        "ECCENTRICITY": 0.0001803,
        "INCLINATION": 43.0042,
        "RA_OF_ASC_NODE": 332.9227,
        "ARG_OF_PERICENTER": 277.564,
        "MEAN_ANOMALY": 82.5007,
        "EPHEMERIS_TYPE": 0,
        "CLASSIFICATION_TYPE": "U",
        "NORAD_CAT_ID": 62052,
        "ELEMENT_SET_NO": 999,
        "REV_AT_EPOCH": 9140,
        "BSTAR": 0.00085577,
        "MEAN_MOTION_DOT": 0.00023353,
        "MEAN_MOTION_DDOT": 0
      },
      "source": "celestrak",
      "source_url": "https://celestrak.org/NORAD/elements/gp.php?NAME=STARLINK&FORMAT=JSON",
      "catalog_fingerprint": "eb0f9db4"
    },
    {
      "satellite_id": "P66-S04",
      "norad_id": 62040,
      "satellite_name": "STARLINK-32510",
      "cospar_id": "2024-216J",
      "shell_id": "starlink-real-43deg-490km",
      "plane_id": 65,
      "slot_id": 3,
      "epoch": "2026-07-02T19:16:30.080352",
      "inclination": 43.0025,
      "raan": 333.7578,
      "eccentricity": 0.0001193,
      "argument_of_perigee": 252.59680000000003,
      "mean_anomaly": 107.4753,
      "mean_motion": 15.27556762,
      "bstar": 0.00072436,
      "status": "active",
      "raw_omm": {
        "OBJECT_NAME": "STARLINK-32510",
        "OBJECT_ID": "2024-216J",
        "EPOCH": "2026-07-02T19:16:30.080352",
        "MEAN_MOTION": 15.27556762,
        "ECCENTRICITY": 0.0001193,
        "INCLINATION": 43.0025,
        "RA_OF_ASC_NODE": 333.7578,
        "ARG_OF_PERICENTER": 252.5968,
        "MEAN_ANOMALY": 107.4753,
        "EPHEMERIS_TYPE": 0,
        "CLASSIFICATION_TYPE": "U",
        "NORAD_CAT_ID": 62040,
        "ELEMENT_SET_NO": 999,
        "REV_AT_EPOCH": 9139,
        "BSTAR": 0.00072436,
        "MEAN_MOTION_DOT": 0.0001971,
        "MEAN_MOTION_DDOT": 0
      },
      "source": "celestrak",
      "source_url": "https://celestrak.org/NORAD/elements/gp.php?NAME=STARLINK&FORMAT=JSON",
      "catalog_fingerprint": "eb0f9db4"
    }
  ]
}